STARLINK-5183           
1 54084U 22136AK  26194.22537786  .00000055  00000+0  21580-4 0  9996
2 54084  53.1594 130.4620 0001281  85.0960 275.0178 15.08835461205936
STARLINK-5166           
1 54085U 22136AL  26194.21528568 -.00000346  00000+0 -36274-5 0  9996
2 54085  53.1595 130.3996 0001557  89.7382 270.3788 15.08841263205930
STARLINK-5211           
1 54086U 22136AM  26194.21756875 -.00001661  00000+0 -86324-4 0  9992
2 54086  53.1614 115.4538 0001305  92.8124 267.3017 15.08825590206149
STARLINK-5184           
1 54087U 22136AN  26194.83987795 -.00000461  00000+0 -10857-4 0  9993
2 54087  53.1607 127.1946 0001351  92.9069 267.2077 15.08833250206030
STARLINK-5153           
1 54088U 22136AP  26194.22169434  .00000814  00000+0  69208-4 0  9993
2 54088  53.1591 130.4382 0001424  95.8194 264.2959 15.08836710205934
STARLINK-5143           
1 54089U 22136AQ  26194.19958719  .00000540  00000+0  52041-4 0  9995
2 54089  53.1597 130.3048 0001498  89.9131 270.2032 15.08834016205931
STARLINK-5177           
1 54090U 22136AR  26194.20327233  .00000581  00000+0  54633-4 0  9994
2 54090  53.1596 130.3239 0001434  85.0053 275.1102 15.08833587205938
STARLINK-5221           
1 54091U 22136AS  26194.83619479 -.00000538  00000+0 -15697-4 0  9991
2 54091  53.1596 127.1680 0001231  89.0180 271.0953 15.08833660206036
STARLINK-5190           
1 54092U 22136AT  26194.83335647  .00122465  16714-4  37102-3 0  9994
2 54092  53.1679 265.4260 0007751 356.9098 207.1049 15.91911375  6065
STARLINK-5213           
1 54093U 22136AU  26194.18851983  .00009903  00000+0  63989-3 0  9998
2 54093  53.1571 130.2351 0001576  61.6285 298.4865 15.08813313205931
STARLINK-5193           
1 54095U 22136AW  26194.84356282 -.00009401  00000+0 -57283-3 0  9990
2 54095  53.1609 127.2100 0001031 107.1847 252.9258 15.08871641206030
STARLINK-5188           
1 54096U 22136AX  26194.19222021 -.00000011  00000+0  17395-4 0  9990
2 54096  53.1607 130.2568 0001294  92.8712 267.2427 15.08831977205936
STARLINK-5197           
1 54097U 22136AY  26194.20006338 -.00000972  00000+0 -42927-4 0  9990
2 54097  53.1619 105.3607 0002247  74.1089 286.0150 15.08835185206282
STARLINK-5217           
1 54098U 22136AZ  26194.24475631 -.00000631  00000+0 -21541-4 0  9992
2 54098  53.1597 130.5653 0001159 130.0283 230.0810 15.08832443205935
STARLINK-5198           
1 54099U 22136BA  26194.23634661  .00000785  00000+0  67458-4 0  9997
2 54099  53.1609 129.8211 0001784  86.3178 273.8017 15.08826022205942
STARLINK-5185           
1 54100U 22136BB  26193.91989042 -.00000654  00000+0 -23022-4 0  9996
2 54100  53.1598 131.4015 0000937  86.6207 273.4891 15.08833610205899
STARLINK-5204           
1 54101U 22136BC  26192.97273297  .00003749  00000+0  14210-3 0  9994
2 54101  53.1602 119.1001 0001134  72.1457 287.9667 15.29370714205986
STARLINK-5179           
1 54102U 22136BD  26194.21432428 -.00000052  00000+0  14843-4 0  9995
2 54102  53.1595 130.3821 0001435  87.9189 272.1966 15.08841540205933
STARLINK-5200           
1 54103U 22136BE  26194.83335647  .00017658  00000+0  84067-3 0  9992
2 54103  53.1610 107.1583 0000462  65.6379 318.3914 15.19242584  5683
STARLINK-5203           
1 54104U 22136BF  26194.86813001  .00001023  00000+0  44710-4 0  9992
2 54104  53.1615  89.6294 0001221  90.6749 269.4392 15.31704531206560
STARLINK-5290           
1 54157U 22141A   26194.31831546  .00000146  00000+0  27258-4 0  9993
2 54157  53.1596 169.8464 0001154  81.8080 278.3042 15.08833258204686
STARLINK-5297           
1 54158U 22141B   26194.40201535  .00000025  00000+0  19666-4 0  9993
2 54158  53.1603 169.6557 0001052  83.0931 277.0180 15.08835234204699
STARLINK-5294           
1 54159U 22141C   26194.33209365  .00000311  00000+0  37639-4 0  9993
2 54159  53.1598 169.9378 0001376  72.0680 288.0462 15.08835204204686
STARLINK-5233           
1 54160U 22141D   26194.83335647  .00040643  00000+0  17530-2 0  9991
2 54160  53.1619 122.1441 0001762  84.9065  77.6605 15.22176505  5534
STARLINK-5269           
1 54161U 22141E   26194.83335647  .00078766  00000+0  32050-2 0  9993
2 54161  53.1608 167.2047 0001711  71.0585  18.5217 15.23838919  5733
STARLINK-5273           
1 54162U 22141F   26194.32473169 -.00000670  00000+0 -24024-4 0  9995
2 54162  53.1598 169.8834 0001322  74.9934 285.1204 15.08826381204688
STARLINK-5161           
1 54163U 22141G   26193.93177791 -.00000249  00000+0  37921-5 0  9996
2 54163  53.1572 158.9296 0001783 145.8722 214.2395 15.34377934204808
STARLINK-5278           
1 54164U 22141H   26194.34362957  .00000827  00000+0  35625-4 0  9992
2 54164  53.1618 157.2280 0001005  90.3246 269.7872 15.34386185204866
STARLINK-5279           
1 54165U 22141J   26193.92359574  .00001142  00000+0  89823-4 0  9997
2 54165  53.1604 171.6500 0000789  93.3026 266.8056 15.08838671204623
STARLINK-5280           
1 54166U 22141K   26194.54974436  .00000441  00000+0  23544-4 0  9996
2 54166  53.1624 156.3782 0001299  85.2112 274.9040 15.35398989204896
