OBJECT_NAME,OBJECT_ID,EPOCH,MEAN_MOTION,ECCENTRICITY,INCLINATION,RA_OF_ASC_NODE,ARG_OF_PERICENTER,MEAN_ANOMALY,EPHEMERIS_TYPE,CLASSIFICATION_TYPE,NORAD_CAT_ID,ELEMENT_SET_NO,REV_AT_EPOCH,BSTAR,MEAN_MOTION_DOT,MEAN_MOTION_DDOT
STARLINK-5183,2022-136AK,2026-07-13T05:24:32.647104,15.08835461,.0001281,53.1594,130.4620,85.0960,275.0178,0,U,54084,999,20593,.2158E-4,.55E-6,0
STARLINK-5166,2022-136AL,2026-07-13T05:10:00.682752,15.08841263,.0001557,53.1595,130.3996,89.7382,270.3788,0,U,54085,999,20593,-.36274E-5,-.346E-5,0
STARLINK-5211,2022-136AM,2026-07-13T05:13:17.940000,15.08825590,.0001305,53.1614,115.4538,92.8124,267.3017,0,U,54086,999,20614,-.86324E-4,-.1661E-4,0
STARLINK-5184,2022-136AN,2026-07-13T20:09:25.454880,15.08833250,.0001351,53.1607,127.1946,92.9069,267.2077,0,U,54087,999,20603,-.10857E-4,-.461E-5,0
STARLINK-5153,2022-136AP,2026-07-13T05:19:14.390976,15.08836710,.0001424,53.1591,130.4382,95.8194,264.2959,0,U,54088,999,20593,.69208E-4,.814E-5,0
STARLINK-5143,2022-136AQ,2026-07-13T04:47:24.333216,15.08834016,.00014988,53.1597,130.3048,89.9131,270.2032,0,U,54089,999,20593,.52041286E-4,.54E-5,0
STARLINK-5177,2022-136AR,2026-07-13T04:52:42.729312,15.08833587,.00014344,53.1596,130.3239,85.0053,275.1102,0,U,54090,999,20593,.54632812E-4,.581E-5,0
STARLINK-5221,2022-136AS,2026-07-13T20:04:07.229856,15.08833660,.0001231,53.1596,127.1680,89.0180,271.0953,0,U,54091,999,20603,-.15697E-4,-.538E-5,0
STARLINK-5190,2022-136AT,2026-07-13T20:00:01.999008,15.91911375,.0007751,53.1679,265.4260,356.9098,207.1049,0,U,54092,999,606,.37102E-3,.122465E-2,.16714E-4
STARLINK-5213,2022-136AU,2026-07-13T04:31:28.113312,15.08813313,.00015769,53.1571,130.2351,61.6285,298.4865,0,U,54093,999,20593,.63988667E-3,.9903E-4,0
STARLINK-5193,2022-136AW,2026-07-13T20:14:43.827648,15.08871641,.0001031,53.1609,127.2100,107.1847,252.9258,0,U,54095,999,20603,-.57283E-3,-.9401E-4,0
STARLINK-5188,2022-136AX,2026-07-13T04:36:47.826144,15.08831977,.00012944,53.1607,130.2568,92.8712,267.2427,0,U,54096,999,20593,.17394942E-4,-.11E-6,0
STARLINK-5197,2022-136AY,2026-07-13T04:48:05.476032,15.08835185,.00022475,53.1619,105.3607,74.1089,286.0150,0,U,54097,999,20628,-.42927147E-4,-.972E-5,0
STARLINK-5217,2022-136AZ,2026-07-13T05:52:26.945184,15.08832443,.0001159,53.1597,130.5653,130.0283,230.0810,0,U,54098,999,20593,-.21541E-4,-.631E-5,0
STARLINK-5198,2022-136BA,2026-07-13T05:40:20.347104,15.08826022,.0001784,53.1609,129.8211,86.3178,273.8017,0,U,54099,999,20594,.67458E-4,.785E-5,0
STARLINK-5185,2022-136BB,2026-07-12T22:04:38.532288,15.08833610,.00009376,53.1598,131.4015,86.6207,273.4891,0,U,54100,999,20589,-.23022186E-4,-.654E-5,0
STARLINK-5204,2022-136BC,2026-07-11T23:20:44.128608,15.29370714,.00011348,53.1602,119.1001,72.1457,287.9667,0,U,54101,999,20598,.14210205E-3,.3749E-4,0
STARLINK-5179,2022-136BD,2026-07-13T05:08:37.617792,15.08841540,.0001435,53.1595,130.3821,87.9189,272.1966,0,U,54102,999,20593,.14843E-4,-.52E-6,0
STARLINK-5200,2022-136BE,2026-07-13T20:00:01.999008,15.19242584,.0000462,53.1610,107.1583,65.6379,318.3914,0,U,54103,999,568,.84067E-3,.17658E-3,0
STARLINK-5203,2022-136BF,2026-07-13T20:50:06.432864,15.31704531,.0001221,53.1615,89.6294,90.6749,269.4392,0,U,54104,999,20656,.4471E-4,.1023E-4,0
STARLINK-5290,2022-141A,2026-07-13T07:38:22.455744,15.08833258,.00011546,53.1596,169.8464,81.8080,278.3042,0,U,54157,999,20468,.27258406E-4,.146E-5,0
STARLINK-5297,2022-141B,2026-07-13T09:38:54.126240,15.08835234,.00010525,53.1603,169.6557,83.0931,277.0180,0,U,54158,999,20469,.19665729E-4,.25E-6,0
STARLINK-5294,2022-141C,2026-07-13T07:58:12.891360,15.08835204,.00013762,53.1598,169.9378,72.0680,288.0462,0,U,54159,999,20468,.37638575E-4,.311E-5,0
STARLINK-5233,2022-141D,2026-07-13T20:00:01.999008,15.22176505,.0001762,53.1619,122.1441,84.9065,77.6605,0,U,54160,999,553,.1753E-2,.40643E-3,0
STARLINK-5269,2022-141E,2026-07-13T20:00:01.999008,15.23838919,.0001711,53.1608,167.2047,71.0585,18.5217,0,U,54161,999,573,.3205E-2,.78766E-3,0
STARLINK-5273,2022-141F,2026-07-13T07:47:36.818016,15.08826381,.00013228,53.1598,169.8834,74.9934,285.1204,0,U,54162,999,20468,-.24023737E-4,-.67E-5,0
STARLINK-5161,2022-141G,2026-07-12T22:21:45.611424,15.34377934,.00017838,53.1572,158.9296,145.8722,214.2395,0,U,54163,999,20480,.3792074E-5,-.249E-5,0
STARLINK-5278,2022-141H,2026-07-13T08:14:49.594848,15.34386185,.00010054,53.1618,157.2280,90.3246,269.7872,0,U,54164,999,20486,.35624782E-4,.827E-5,0
STARLINK-5279,2022-141J,2026-07-12T22:09:58.671936,15.08838671,.00007895,53.1604,171.6500,93.3026,266.8056,0,U,54165,999,20462,.89823034E-4,.1142E-4,0
STARLINK-5280,2022-141K,2026-07-13T13:11:37.912704,15.35398989,.0001299,53.1624,156.3782,85.2112,274.9040,0,U,54166,999,20489,.23544E-4,.441E-5,0
